CCSDS_OMM_VERS = 2.0
CREATION_DATE  = 
ORIGINATOR     = 

OBJECT_NAME    = YOTSUBA-KULOVER
OBJECT_ID      = 1998-067XN
CENTER_NAME    = EARTH
REF_FRAME      = TEME
TIME_SYSTEM    = UTC
MEAN_ELEMENT_THEORY = SGP/SGP4

EPOCH          = 2026-03-09T04:47:45.659328
MEAN_MOTION    = 15.80299933
ECCENTRICITY   = .0005615
INCLINATION    = 51.6212
RA_OF_ASC_NODE = 59.8333
ARG_OF_PERICENTER = 64.0479
MEAN_ANOMALY   = 296.1100

EPHEMERIS_TYPE = 0
CLASSIFICATION_TYPE = U
NORAD_CAT_ID   = 65941
ELEMENT_SET_NO = 999
REV_AT_EPOCH   = 2342
BSTAR          = .11586E-2
MEAN_MOTION_DOT = .228614E-2
MEAN_MOTION_DDOT = 0

CCSDS_OMM_VERS = 2.0
CREATION_DATE  = 
ORIGINATOR     = 

OBJECT_NAME    = E-KAGAKU-1
OBJECT_ID      = 1998-067XQ
CENTER_NAME    = EARTH
REF_FRAME      = TEME
TIME_SYSTEM    = UTC
MEAN_ELEMENT_THEORY = SGP/SGP4

EPOCH          = 2026-03-09T04:54:01.337760
MEAN_MOTION    = 15.79952839
ECCENTRICITY   = .0005995
INCLINATION    = 51.6231
RA_OF_ASC_NODE = 59.8799
ARG_OF_PERICENTER = 71.0576
MEAN_ANOMALY   = 289.1075

EPHEMERIS_TYPE = 0
CLASSIFICATION_TYPE = U
NORAD_CAT_ID   = 65943
ELEMENT_SET_NO = 999
REV_AT_EPOCH   = 2342
BSTAR          = .11367E-2
MEAN_MOTION_DOT = .220564E-2
MEAN_MOTION_DDOT = 0

CCSDS_OMM_VERS = 2.0
CREATION_DATE  = 
ORIGINATOR     = 

OBJECT_NAME    = HRC MONOBLOCK CAMERA
OBJECT_ID      = 1998-067XR
CENTER_NAME    = EARTH
REF_FRAME      = TEME
TIME_SYSTEM    = UTC
MEAN_ELEMENT_THEORY = SGP/SGP4

EPOCH          = 2026-03-09T09:07:55.754688
MEAN_MOTION    = 15.62163367
ECCENTRICITY   = .0003667
INCLINATION    = 51.6279
RA_OF_ASC_NODE = 67.0928
ARG_OF_PERICENTER = 90.6396
MEAN_ANOMALY   = 269.5018

EPHEMERIS_TYPE = 0
CLASSIFICATION_TYPE = U
NORAD_CAT_ID   = 66052
ELEMENT_SET_NO = 999
REV_AT_EPOCH   = 2234
BSTAR          = .60521E-3
MEAN_MOTION_DOT = .5407E-3
MEAN_MOTION_DDOT = 0

CCSDS_OMM_VERS = 2.0
CREATION_DATE  = 
ORIGINATOR     = 

OBJECT_NAME    = HTV-X1
OBJECT_ID      = 2025-241A
CENTER_NAME    = EARTH
REF_FRAME      = TEME
TIME_SYSTEM    = UTC
MEAN_ELEMENT_THEORY = SGP/SGP4

EPOCH          = 2026-03-08T17:44:01.330656
MEAN_MOTION    = 15.48531098
ECCENTRICITY   = .00080508
INCLINATION    = 51.6319
RA_OF_ASC_NODE = 77.0569
ARG_OF_PERICENTER = 171.0721
MEAN_ANOMALY   = 189.0412

EPHEMERIS_TYPE = 0
CLASSIFICATION_TYPE = U
NORAD_CAT_ID   = 66174
ELEMENT_SET_NO = 999
REV_AT_EPOCH   = 55447
BSTAR          = .18226947E-3
MEAN_MOTION_DOT = .9449E-4
MEAN_MOTION_DDOT = 0

CCSDS_OMM_VERS = 2.0
CREATION_DATE  = 
ORIGINATOR     = 

OBJECT_NAME    = SZ-21 MODULE
OBJECT_ID      = 2025-246C
CENTER_NAME    = EARTH
REF_FRAME      = TEME
TIME_SYSTEM    = UTC
MEAN_ELEMENT_THEORY = SGP/SGP4

EPOCH          = 2026-03-08T17:40:24.022560
MEAN_MOTION    = 15.68463397
ECCENTRICITY   = .00013651
INCLINATION    = 41.4736
RA_OF_ASC_NODE = 209.2286
ARG_OF_PERICENTER = 296.9264
MEAN_ANOMALY   = 63.1439

EPHEMERIS_TYPE = 0
CLASSIFICATION_TYPE = U
NORAD_CAT_ID   = 66515
ELEMENT_SET_NO = 999
REV_AT_EPOCH   = 1792
BSTAR          = .4111263E-3
MEAN_MOTION_DOT = .47754E-3
MEAN_MOTION_DDOT = 0

CCSDS_OMM_VERS = 2.0
CREATION_DATE  = 
ORIGINATOR     = 

OBJECT_NAME    = SHENZHOU-22
OBJECT_ID      = 2025-272A
CENTER_NAME    = EARTH
REF_FRAME      = TEME
TIME_SYSTEM    = UTC
MEAN_ELEMENT_THEORY = SGP/SGP4

EPOCH          = 2026-03-09T12:33:59.219712
MEAN_MOTION    = 15.60647240
ECCENTRICITY   = .0006983
INCLINATION    = 41.4667
RA_OF_ASC_NODE = 209.1734
ARG_OF_PERICENTER = 272.1717
MEAN_ANOMALY   = 87.8322

EPHEMERIS_TYPE = 0
CLASSIFICATION_TYPE = U
NORAD_CAT_ID   = 66645
ELEMENT_SET_NO = 999
REV_AT_EPOCH   = 26922
BSTAR          = .29658E-3
MEAN_MOTION_DOT = .25054E-3
MEAN_MOTION_DDOT = 0

CCSDS_OMM_VERS = 2.0
CREATION_DATE  = 
ORIGINATOR     = 

OBJECT_NAME    = SOYUZ-MS 28
OBJECT_ID      = 2025-275A
CENTER_NAME    = EARTH
REF_FRAME      = TEME
TIME_SYSTEM    = UTC
MEAN_ELEMENT_THEORY = SGP/SGP4

EPOCH          = 2026-03-09T10:46:14.833056
MEAN_MOTION    = 15.48542052
ECCENTRICITY   = .0008027
INCLINATION    = 51.6321
RA_OF_ASC_NODE = 73.5472
ARG_OF_PERICENTER = 173.5451
MEAN_ANOMALY   = 186.5642

EPHEMERIS_TYPE = 0
CLASSIFICATION_TYPE = U
NORAD_CAT_ID   = 66664
ELEMENT_SET_NO = 999
REV_AT_EPOCH   = 55630
BSTAR          = .15192E-3
MEAN_MOTION_DOT = .7802E-4
MEAN_MOTION_DDOT = 0

CCSDS_OMM_VERS = 2.0
CREATION_DATE  = 
ORIGINATOR     = 

OBJECT_NAME    = DUPLEX
OBJECT_ID      = 1998-067XS
CENTER_NAME    = EARTH
REF_FRAME      = TEME
TIME_SYSTEM    = UTC
MEAN_ELEMENT_THEORY = SGP/SGP4

EPOCH          = 2026-03-09T06:21:42.121440
MEAN_MOTION    = 15.56173830
ECCENTRICITY   = .0002353
INCLINATION    = 51.6292
RA_OF_ASC_NODE = 71.5742
ARG_OF_PERICENTER = 105.0459
MEAN_ANOMALY   = 255.0793

EPHEMERIS_TYPE = 0
CLASSIFICATION_TYPE = U
NORAD_CAT_ID   = 66906
ELEMENT_SET_NO = 999
REV_AT_EPOCH   = 1506
BSTAR          = .46194E-3
MEAN_MOTION_DOT = .32613E-3
MEAN_MOTION_DDOT = 0

CCSDS_OMM_VERS = 2.0
CREATION_DATE  = 
ORIGINATOR     = 

OBJECT_NAME    = ISS OBJECT XT
OBJECT_ID      = 1998-067XT
CENTER_NAME    = EARTH
REF_FRAME      = TEME
TIME_SYSTEM    = UTC
MEAN_ELEMENT_THEORY = SGP/SGP4

EPOCH          = 2026-03-08T07:24:56.473344
MEAN_MOTION    = 15.68765418
ECCENTRICITY   = .00047131
INCLINATION    = 51.6249
RA_OF_ASC_NODE = 72.6759
ARG_OF_PERICENTER = 69.3241
MEAN_ANOMALY   = 290.8261

EPHEMERIS_TYPE = 0
CLASSIFICATION_TYPE = U
NORAD_CAT_ID   = 66907
ELEMENT_SET_NO = 999
REV_AT_EPOCH   = 1496
BSTAR          = .18024497E-2
MEAN_MOTION_DOT = .215395E-2
MEAN_MOTION_DDOT = 0

CCSDS_OMM_VERS = 2.0
CREATION_DATE  = 
ORIGINATOR     = 

OBJECT_NAME    = ISS OBJECT XU
OBJECT_ID      = 1998-067XU
CENTER_NAME    = EARTH
REF_FRAME      = TEME
TIME_SYSTEM    = UTC
MEAN_ELEMENT_THEORY = SGP/SGP4

EPOCH          = 2026-03-09T04:46:29.551296
MEAN_MOTION    = 15.69191892
ECCENTRICITY   = .0004893
INCLINATION    = 51.6248
RA_OF_ASC_NODE = 68.1144
ARG_OF_PERICENTER = 76.6698
MEAN_ANOMALY   = 283.4844

EPHEMERIS_TYPE = 0
CLASSIFICATION_TYPE = U
NORAD_CAT_ID   = 66908
ELEMENT_SET_NO = 999
REV_AT_EPOCH   = 1510
BSTAR          = .13351E-2
MEAN_MOTION_DOT = .161175E-2
MEAN_MOTION_DDOT = 0

CCSDS_OMM_VERS = 2.0
CREATION_DATE  = 
ORIGINATOR     = 

OBJECT_NAME    = SILVERSAT
OBJECT_ID      = 1998-067XV
CENTER_NAME    = EARTH
REF_FRAME      = TEME
TIME_SYSTEM    = UTC
MEAN_ELEMENT_THEORY = SGP/SGP4

EPOCH          = 2026-03-09T06:21:04.623840
MEAN_MOTION    = 15.72057374
ECCENTRICITY   = .0005528
INCLINATION    = 51.6252
RA_OF_ASC_NODE = 67.0520
ARG_OF_PERICENTER = 73.9744
MEAN_ANOMALY   = 286.1862

EPHEMERIS_TYPE = 0
CLASSIFICATION_TYPE = U
NORAD_CAT_ID   = 66909
ELEMENT_SET_NO = 999
REV_AT_EPOCH   = 1512
BSTAR          = .15445E-2
MEAN_MOTION_DOT = .211631E-2
MEAN_MOTION_DDOT = 0

CCSDS_OMM_VERS = 2.0
CREATION_DATE  = 
ORIGINATOR     = 

OBJECT_NAME    = ISS OBJECT XW
OBJECT_ID      = 1998-067XW
CENTER_NAME    = EARTH
REF_FRAME      = TEME
TIME_SYSTEM    = UTC
MEAN_ELEMENT_THEORY = SGP/SGP4

EPOCH          = 2026-03-09T06:13:06.168288
MEAN_MOTION    = 15.68462358
ECCENTRICITY   = .0005143
INCLINATION    = 51.6252
RA_OF_ASC_NODE = 67.7624
ARG_OF_PERICENTER = 83.0730
MEAN_ANOMALY   = 277.0851

EPHEMERIS_TYPE = 0
CLASSIFICATION_TYPE = U
NORAD_CAT_ID   = 66910
ELEMENT_SET_NO = 999
REV_AT_EPOCH   = 1511
BSTAR          = .1254E-2
MEAN_MOTION_DOT = .146604E-2
MEAN_MOTION_DDOT = 0

